{"type": "FeatureCollection", "features": [{"type": "Feature", "properties": {"name": "Озеро Иссык-Куль"}, "geometry": {"type": "Polygon", "coordinates": [[[78.2247, 42.2714], [78.2248, 42.3051], [78.2064, 42.341], [78.1701, 42.3787], [78.1162, 42.4174], [78.0459, 42.4565], [77.9602, 42.4953], [77.8606, 42.5331], [77.7489, 42.5694], [77.6269, 42.6034], [77.4968, 42.6347], [77.3607, 42.6626], [77.2211, 42.6867], [77.0802, 42.7066], [76.9405, 42.722], [76.8044, 42.7325], [76.6742, 42.738], [76.5522, 42.7384], [76.4403, 42.7337], [76.3407, 42.7239], [76.2548, 42.7094], [76.1843, 42.6902], [76.1303, 42.6667], [76.0938, 42.6393], [76.0753, 42.6086], [76.0752, 42.5749], [76.0936, 42.539], [76.1299, 42.5013], [76.1838, 42.4626], [76.2541, 42.4235], [76.3398, 42.3847], [76.4394, 42.3469], [76.5511, 42.3106], [76.6731, 42.2766], [76.8032, 42.2453], [76.9393, 42.2174], [77.0789, 42.1933], [77.2198, 42.1734], [77.3595, 42.158], [77.4956, 42.1475], [77.6258, 42.142], [77.7478, 42.1416], [77.8597, 42.1463], [77.9593, 42.1561], [78.0452, 42.1706], [78.1157, 42.1898], [78.1697, 42.2133], [78.2062, 42.2407], [78.2247, 42.2714]]]}}, {"type": "Feature", "properties": {"name": "Озеро Сон-Куль"}, "geometry": {"type": "Polygon", "coordinates": [[[75.2986, 41.841], [75.2959, 41.8514], [75.2904, 41.8615], [75.2822, 41.8711], [75.2713, 41.8799], [75.258, 41.8879], [75.2425, 41.8949], [75.2251, 41.9008], [75.2061, 41.9054], [75.1858, 41.9088], [75.1645, 41.9109], [75.1426, 41.9115], [75.1205, 41.9108], [75.0986, 41.9086], [75.0772, 41.9052], [75.0567, 41.9004], [75.0375, 41.8945], [75.0198, 41.8874], [75.0041, 41.8793], [74.9904, 41.8705], [74.9792, 41.8609], [74.9706, 41.8508], [74.9647, 41.8403], [74.9616, 41.8296], [74.9614, 41.819], [74.9641, 41.8086], [74.9696, 41.7985], [74.9778, 41.7889], [74.9887, 41.7801], [75.002, 41.7721], [75.0175, 41.7651], [75.0349, 41.7592], [75.0539, 41.7546], [75.0742, 41.7512], [75.0955, 41.7491], [75.1174, 41.7485], [75.1395, 41.7492], [75.1614, 41.7514], [75.1828, 41.7548], [75.2033, 41.7596], [75.2225, 41.7655], [75.2402, 41.7726], [75.2559, 41.7807], [75.2696, 41.7895], [75.2808, 41.7991], [75.2894, 41.8092], [75.2953, 41.8197], [75.2984, 41.8304], [75.2986, 41.841]]]}}, {"type": "Feature", "properties": {"name": "Озеро Сары-Челек"}, "geometry": {"type": "Polygon", "coordinates": [[[72.0177, 41.9604], [72.0185, 41.9617], [72.0186, 41.9633], [72.018, 41.9652], [72.0168, 41.9674], [72.015, 41.9698], [72.0126, 41.9724], [72.0096, 41.9751], [72.0061, 41.9779], [72.0021, 41.9807], [71.9978, 41.9835], [71.9932, 41.9862], [71.9883, 41.9889], [71.9833, 41.9913], [71.9783, 41.9936], [71.9733, 41.9957], [71.9684, 41.9975], [71.9637, 41.999], [71.9592, 42.0001], [71.9551, 42.001], [71.9515, 42.0014], [71.9483, 42.0015], [71.9457, 42.0013], [71.9437, 42.0006], [71.9423, 41.9996], [71.9415, 41.9983], [71.9414, 41.9967], [71.942, 41.9948], [71.9432, 41.9926], [71.945, 41.9902], [71.9474, 41.9876], [71.9504, 41.9849], [71.9539, 41.9821], [71.9579, 41.9793], [71.9622, 41.9765], [71.9668, 41.9738], [71.9717, 41.9711], [71.9767, 41.9687], [71.9817, 41.9664], [71.9867, 41.9643], [71.9916, 41.9625], [71.9963, 41.961], [72.0008, 41.9599], [72.0049, 41.959], [72.0085, 41.9586], [72.0117, 41.9585], [72.0143, 41.9587], [72.0163, 41.9594], [72.0177, 41.9604]]]}}]}